[{"OBJECT_NAME":"OBJECT B","OBJECT_ID":"2024-205B","EPOCH":"2026-03-09T23:46:05.115936","MEAN_MOTION":15.28158697,"ECCENTRICITY":0.00105957,"INCLINATION":97.4192,"RA_OF_ASC_NODE":146.9311,"ARG_OF_PERICENTER":34.0947,"MEAN_ANOMALY":326.0972,"EPHEMERIS_TYPE":0,"CLASSIFICATION_TYPE":"U","NORAD_CAT_ID":61895,"ELEMENT_SET_NO":999,"REV_AT_EPOCH":7352,"BSTAR":0.00054154807,"MEAN_MOTION_DOT":0.00014827,"MEAN_MOTION_DDOT":0},{"OBJECT_NAME":"STARLINK-34273","OBJECT_ID":"2025-157B","EPOCH":"2026-03-09T04:19:19.035552","MEAN_MOTION":15.30181902,"ECCENTRICITY":0.00011822,"INCLINATION":53.1608,"RA_OF_ASC_NODE":348.1885,"ARG_OF_PERICENTER":58.1528,"MEAN_ANOMALY":301.9587,"EPHEMERIS_TYPE":0,"CLASSIFICATION_TYPE":"U","NORAD_CAT_ID":64905,"ELEMENT_SET_NO":999,"REV_AT_EPOCH":3605,"BSTAR":0.0013347067,"MEAN_MOTION_DOT":0.00039358,"MEAN_MOTION_DDOT":0}]
